ONEWEB-0291             
1 49081U 21075G   25134.11872761  .00000026  00000+0  32607-4 0  9994
2 49081  87.9047  85.3142 0002223  87.2984 272.8402 13.17648744182044
ONEWEB-0293             
1 49082U 21075H   25134.14403702 -.00000016  00000+0 -74322-4 0  9994
2 49082  87.9051  85.3397 0002029  86.8410 273.2954 13.17648854182066
ONEWEB-0294             
1 49083U 21075J   25133.84667470 -.00000378  00000+0 -10863-2 0  9994
2 49083  87.8877  70.0951 0002101  95.7077 264.4291 13.12443907182195
ONEWEB-0295             
1 49084U 21075K   25134.14317467  .00000047  00000+0  87236-4 0  9998
2 49084  87.9065  85.3288 0002423  86.2971 273.8438 13.17649616182000
ONEWEB-0296             
1 49085U 21075L   25133.82722265  .00000101  00000+0  24540-3 0  9998
2 49085  87.8879  70.1071 0002506  90.6570 269.4846 13.12442061182195
ONEWEB-0297             
1 49086U 21075M   25134.08674861 -.00000289  00000+0 -83820-3 0  9991
2 49086  87.8888  70.0868 0002081  79.0739 281.0624 13.12443122183829
ONEWEB-0298             
1 49087U 21075N   25134.14752720 -.00000011  00000+0 -61017-4 0  9998
2 49087  87.9053  85.3367 0002208  78.6705 281.4675 13.17650702182061
ONEWEB-0299             
1 49088U 21075P   25133.84532167  .00000029  00000+0  41037-4 0  9993
2 49088  87.9046  85.3520 0002244  79.3814 280.7570 13.17651895181018
